TYVAK-182A              
1 48271U 21034D   26132.11851207  .00003735  00000+0  26166-3 0  9992
2 48271  97.5741 191.6672 0007248  95.4263 264.7791 15.05812047274405
CSS (TIANHE)            
1 48274U 21035A   26132.51920401  .00012182  00000+0  13837-3 0  9990
2 48274  41.4671 178.9319 0004229 292.2546  67.7845 15.62150141287599
TYVAK-0130              
1 48606U 21041BF  26132.44698590  .00004556  00000+0  18207-3 0  9991
2 48606  52.9934 191.9991 0011109  61.0219 299.1890 15.27062829274922
HAIYANG-2D              
1 48621U 21043A   26132.65115793  .00000342  00000+0  38384-3 0  9999
2 48621  66.0002  33.1725 0011394 273.5068  86.4697 13.83374196251639
TYVAK-0173              
1 48892U 21059P   26132.47576646  .00001118  00000+0  14559-3 0  9994
2 48892  96.0084 217.7111 0010326 142.1093 218.0854 14.81765946262955
MANDRAKE 2 ABLE         
1 48907U 21059AE  26132.57024294  .00014536  00000+0  23001-3 0  9999
2 48907  97.7049 319.6802 0006269 118.5254 241.6630 15.53542397271594
MANDRAKE 2 BAKER        
1 48908U 21059AF  26132.47338424  .00016675  00000+0  22602-3 0  9994
2 48908  97.7025 322.2095 0004868 116.5793 243.5961 15.57745424271736
PACE-1                  
1 48909U 21059AG  26132.04554074  .00048597  00000+0  33659-3 0  9991
2 48909  97.6811 326.2769 0002869 102.0324 258.1261 15.74362077272105
YAM-3                   
1 48915U 21059AN  26132.45273103  .00007631  00000+0  14914-3 0  9991
2 48915  97.6998 317.0978 0006543 119.5316 240.6586 15.47751337271460
FARADAY_PHOENIX         
1 48924U 21059AX  26132.48946805  .00059813  00000+0  48511-3 0  9999
2 48924  97.6859 326.7890 0005184 112.3965 247.7846 15.70562467272049
DEMO8 (TENZING)         
1 48951U 21059CA  26132.05905720  .00013560  00000+0  21405-3 0  9995
2 48951  97.7048 322.7671 0008246 115.4671 244.7435 15.53610101271694
NAPA-2                  
1 48963U 21059CN  26132.79336706  .00110360  00000+0  47021-3 0  9999
2 48963  97.6784 327.3294 0002182 126.0709 234.0762 15.84930957272186
FENGYUN 3E              
1 49008U 21062A   26132.61584862  .00000042  00000+0  40676-4 0  9998
2 49008  98.7506 136.4205 0001694 148.5849 211.5429 14.19901458251530
ISS (NAUKA)             
1 49044U 21066A   26132.45690432  .00004839  00000+0  95300-4 0  9997
2 49044  51.6310 116.9716 0007499  50.7815 309.3838 15.49194663565160
STARLINK-3100           
1 49144U 21082Q   26132.39045099 -.00000185  00000+0 -76791-5 0  9998
2 49144  69.9987 133.8343 0003863 266.9366  93.1351 14.98331248255529
CUTE                    
1 49263U 21088D   26132.20929563  .00127564  00000+0  73416-3 0  9991
2 49263  97.4191 228.4594 0001552 275.0488  85.0601 15.78351716256858
2021-091B               
1 49316U 21091B   26132.67255458  .00001182  00000+0  60711-4 0  9992
2 49316  97.4486 320.7930 0013758 157.8766 202.3065 15.18364665253598
SDGSAT 1                
1 49387U 21100A   26132.61195465  .00001504  00000+0  73379-4 0  9998
2 49387  97.2665 180.8790 0009665  63.1847 297.0376 15.19739227250519
TEIKYOSAT-4 (OORURI)    
1 49396U 21102B   26132.32313560  .00001019  00000+0  67519-4 0  9996
2 49396  97.3699 163.1995 0013540  60.9839 299.2745 15.09376462247316
Z-SAT                   
1 49399U 21102E   26132.60494292  .00001686  00000+0  85924-4 0  9992
2 49399  97.3360 169.0102 0017141  17.9285 342.2550 15.17987221248041
HIBARI                  
1 49400U 21102F   26132.39316662  .00006574  00000+0  22173-3 0  9992
2 49400  97.3272 178.7195 0010444 335.5965  24.4781 15.30996305248715
KOSEN-1                 
1 49402U 21102H   26132.35205809  .00004450  00000+0  17377-3 0  9991
2 49402  97.3221 175.2138 0012842 341.4949  18.5820 15.26331816248557
GLOBAL-14               
1 49469U 21106A   26132.31699169  .00013843  00000+0  25464-3 0  9992
2 49469  42.0034 143.9591 0014185 138.6716 221.5203 15.48881737252567
GAOFEN-3 02             
1 49495U 21109A   26132.59672760  .00000058  00000+0  30769-4 0  9991
2 49495  98.4105 141.1983 0004002  92.6040 267.5607 14.42212468235180
GLOBAL-12               
1 49772U 21115BA  26132.60278691  .00018451  00000+0  31205-3 0  9994
2 49772  53.1952 215.3623 0002162 325.8452  34.2419 15.51663903250377
GLOBAL-13               
1 49773U 21115BB  26132.35501471  .00010705  00000+0  23386-3 0  9997
2 49773  53.1970 224.7426 0003178  25.5296 334.5868 15.44769452250227
GLOBAL-17               
1 49949U 21120A   26132.48609882  .00017305  00000+0  29962-3 0  9996
2 49949  41.9953 261.7227 0013141 357.1784   2.8983 15.50474430249356
GLOBAL-16               
1 49950U 21120B   26132.64717431  .00016118  00000+0  29904-3 0  9993
2 49950  41.9960 263.8640 0011355 348.0825  11.9748 15.48574929249337
XW-3 (CAS-9)            
1 50466U 21131B   26132.58094250  .00000542  00000+0  18132-3 0  9994
2 50466  98.4954 225.1671 0003792 187.8774 172.2356 14.41323205229980
