OBJECT_NAME,OBJECT_ID,EPOCH,MEAN_MOTION,ECCENTRICITY,INCLINATION,RA_OF_ASC_NODE,ARG_OF_PERICENTER,MEAN_ANOMALY,EPHEMERIS_TYPE,CLASSIFICATION_TYPE,NORAD_CAT_ID,ELEMENT_SET_NO,REV_AT_EPOCH,BSTAR,MEAN_MOTION_DOT,MEAN_MOTION_DDOT
TYVAK-182A,2021-034D,2026-05-12T02:50:39.442848,15.05812047,.00072484,97.5741,191.6672,95.4263,264.7791,0,U,48271,999,27440,.26165998E-3,.3735E-4,0
CSS (TIANHE),2021-035A,2026-05-12T12:27:39.226464,15.62150141,.00042294,41.4671,178.9319,292.2546,67.7845,0,U,48274,999,28759,.13836897E-3,.12182E-3,0
TYVAK-0130,2021-041BF,2026-05-12T10:43:39.581760,15.27062829,.00111091,52.9934,191.9991,61.0219,299.1890,0,U,48606,999,27492,.18206566E-3,.4556E-4,0
HAIYANG-2D,2021-043A,2026-05-12T15:37:40.045152,13.83374196,.00113948,66.0002,33.1725,273.5068,86.4697,0,U,48621,999,25163,.38383822E-3,.342E-5,0
TYVAK-0173,2021-059P,2026-05-12T11:25:06.222144,14.81765946,.00103262,96.0084,217.7111,142.1093,218.0854,0,U,48892,999,26295,.14559148E-3,.1118E-4,0
MANDRAKE 2 ABLE,2021-059AE,2026-05-12T13:41:08.990016,15.53542397,.00062696,97.7049,319.6802,118.5254,241.6630,0,U,48907,999,27159,.23001052E-3,.14536E-3,0
MANDRAKE 2 BAKER,2021-059AF,2026-05-12T11:21:40.398336,15.57745424,.00048681,97.7025,322.2095,116.5793,243.5961,0,U,48908,999,27173,.22601805E-3,.16675E-3,0
PACE-1,2021-059AG,2026-05-12T01:05:34.719936,15.74362077,.00028698,97.6811,326.2769,102.0324,258.1261,0,U,48909,999,27210,.33658848E-3,.48597E-3,0
YAM-3,2021-059AN,2026-05-12T10:51:55.960992,15.47751337,.00065431,97.6998,317.0978,119.5316,240.6586,0,U,48915,999,27146,.1491375E-3,.7631E-4,0
FARADAY_PHOENIX,2021-059AX,2026-05-12T11:44:50.039520,15.70562467,.00051845,97.6859,326.7890,112.3965,247.7846,0,U,48924,999,27204,.48510694E-3,.59813E-3,0
DEMO8 (TENZING),2021-059CA,2026-05-12T01:25:02.542080,15.53610101,.00082461,97.7048,322.7671,115.4671,244.7435,0,U,48951,999,27169,.21405031E-3,.1356E-3,0
NAPA-2,2021-059CN,2026-05-12T19:02:26.913984,15.84930957,.0002182,97.6784,327.3294,126.0709,234.0762,0,U,48963,999,27218,.47021E-3,.11036E-2,0
FENGYUN 3E,2021-062A,2026-05-12T14:46:49.320768,14.19901458,.00016945,98.7506,136.4205,148.5849,211.5429,0,U,49008,999,25153,.406755E-4,.42E-6,0
ISS (NAUKA),2021-066A,2026-05-12T10:57:56.533248,15.49194663,.0007499,51.6310,116.9716,50.7815,309.3838,0,U,49044,999,56516,.95300318E-4,.4839E-4,0
STARLINK-3100,2021-082Q,2026-05-12T09:22:14.965536,14.98331248,.00038635,69.9987,133.8343,266.9366,93.1351,0,U,49144,999,25552,-.7679077E-5,-.185E-5,0
CUTE,2021-088D,2026-05-12T05:01:23.142432,15.78351716,.00015525,97.4191,228.4594,275.0488,85.0601,0,U,49263,999,25685,.73415645E-3,.127564E-2,0
2021-091B,2021-091B,2026-05-12T16:08:28.715712,15.18364665,.00137583,97.4486,320.7930,157.8766,202.3065,0,U,49316,999,25359,.60711475E-4,.1182E-4,0
SDGSAT 1,2021-100A,2026-05-12T14:41:12.881760,15.19739227,.00096657,97.2665,180.8790,63.1847,297.0376,0,U,49387,999,25051,.73379044E-4,.1504E-4,0
TEIKYOSAT-4 (OORURI),2021-102B,2026-05-12T07:45:18.915840,15.09376462,.00135409,97.3699,163.1995,60.9839,299.2745,0,U,49396,999,24731,.67518896E-4,.1019E-4,0
Z-SAT,2021-102E,2026-05-12T14:31:07.068288,15.17987221,.00171414,97.3360,169.0102,17.9285,342.2550,0,U,49399,999,24804,.85923691E-4,.1686E-4,0
HIBARI,2021-102F,2026-05-12T09:26:09.595968,15.30996305,.00104444,97.3272,178.7195,335.5965,24.4781,0,U,49400,999,24871,.2217261E-3,.6574E-4,0
KOSEN-1,2021-102H,2026-05-12T08:26:57.818976,15.26331816,.00128426,97.3221,175.2138,341.4949,18.5820,0,U,49402,999,24855,.17376543E-3,.445E-4,0
GLOBAL-14,2021-106A,2026-05-12T07:36:28.082016,15.48881737,.00141857,42.0034,143.9591,138.6716,221.5203,0,U,49469,999,25256,.25464229E-3,.13843E-3,0
GAOFEN-3 02,2021-109A,2026-05-12T14:19:17.264640,14.42212468,.00040022,98.4105,141.1983,92.6040,267.5607,0,U,49495,999,23518,.30768615E-4,.58E-6,0
GLOBAL-12,2021-115BA,2026-05-12T14:28:00.789024,15.51663903,.00021628,53.1952,215.3623,325.8452,34.2419,0,U,49772,999,25037,.31205295E-3,.18451E-3,0
GLOBAL-13,2021-115BB,2026-05-12T08:31:13.270944,15.44769452,.00031781,53.1970,224.7426,25.5296,334.5868,0,U,49773,999,25022,.2338611E-3,.10705E-3,0
GLOBAL-17,2021-120A,2026-05-12T11:39:58.938048,15.50474430,.00131419,41.9953,261.7227,357.1784,2.8983,0,U,49949,999,24935,.29962461E-3,.17305E-3,0
GLOBAL-16,2021-120B,2026-05-12T15:31:55.860384,15.48574929,.00113551,41.9960,263.8640,348.0825,11.9748,0,U,49950,999,24933,.29903794E-3,.16118E-3,0
XW-3 (CAS-9),2021-131B,2026-05-12T13:56:33.432000,14.41323205,.00037926,98.4954,225.1671,187.8774,172.2356,0,U,50466,999,22998,.18132426E-3,.542E-5,0
